{
  "type": "FeatureCollection",
  "features": [
    {
      "type": "Feature",
      "properties": {
        "norad_id": 44873,
        "name": "CSG-1",
        "group": "resource",
        "lat": -2.1081288654392583,
        "lon": -20.390689039849377,
        "alt_km": 625.9641020732452,
        "timestamp": "2025-12-04T10:51:49.763807+00:00",
        "meta_object_name": "CSG-1",
        "meta_object_id": "2019-092A",
        "meta_epoch": "2025-12-04T03:33:51.499872",
        "meta_mean_motion": 14.82145275,
        "meta_eccentricity": 0.0001474,
        "meta_inclination": 97.8806,
        "meta_ra_of_asc_node": 159.602,
        "meta_arg_of_pericenter": 86.8934,
        "meta_mean_anomaly": 273.2448,
        "meta_ephemeris_type": 0,
        "meta_classification_type": "U",
        "meta_norad_cat_id": 44873,
        "meta_element_set_no": 999,
        "meta_rev_at_epoch": 32258,
        "meta_bstar": 0.00014219,
        "meta_mean_motion_dot": 1.08e-05,
        "meta_mean_motion_ddot": 0,
        "tle_line1": "1 44873U 19092A   25338.14851273  .00001080  00000+0  14219-3 0  9997",
        "tle_line2": "2 44873  97.8806 159.6020 0001474  86.8934 273.2448 14.82145275322582"
      },
      "geometry": {
        "type": "Point",
        "coordinates": [
          -20.390689039849377,
          -2.1081288654392583
        ]
      }
    },
    {
      "type": "Feature",
      "properties": {
        "norad_id": 46277,
        "name": "NEMO-HD",
        "group": "resource",
        "lat": 51.49669553321874,
        "lon": 28.48443022484839,
        "alt_km": 439.65375502214465,
        "timestamp": "2025-12-04T10:51:49.763817+00:00",
        "meta_object_name": "NEMO-HD",
        "meta_object_id": "2020-061F",
        "meta_epoch": "2025-12-04T04:24:03.528288",
        "meta_mean_motion": 15.40059098,
        "meta_eccentricity": 0.0002328,
        "meta_inclination": 97.223,
        "meta_ra_of_asc_node": 37.3921,
        "meta_arg_of_pericenter": 67.2082,
        "meta_mean_anomaly": 292.941,
        "meta_ephemeris_type": 0,
        "meta_classification_type": "U",
        "meta_norad_cat_id": 46277,
        "meta_element_set_no": 999,
        "meta_rev_at_epoch": 29192,
        "meta_bstar": 0.00053824,
        "meta_mean_motion_dot": 0.00021469,
        "meta_mean_motion_ddot": 0,
        "tle_line1": "1 46277U 20061F   25338.18337417  .00021469  00000+0  53824-3 0  9996",
        "tle_line2": "2 46277  97.2230  37.3921 0002328  67.2082 292.9410 15.40059098291927"
      },
      "geometry": {
        "type": "Point",
        "coordinates": [
          28.48443022484839,
          51.49669553321874
        ]
      }
    },
    {
      "type": "Feature",
      "properties": {
        "norad_id": 46984,
        "name": "SENTINEL-6A",
        "group": "resource",
        "lat": 42.97492440064037,
        "lon": -156.00460010217347,
        "alt_km": 1337.747866689082,
        "timestamp": "2025-12-04T10:51:49.763828+00:00",
        "meta_object_name": "SENTINEL-6A",
        "meta_object_id": "2020-086A",
        "meta_epoch": "2025-12-03T23:22:11.269056",
        "meta_mean_motion": 12.80930164,
        "meta_eccentricity": 0.0007737,
        "meta_inclination": 66.039,
        "meta_ra_of_asc_node": 180.5154,
        "meta_arg_of_pericenter": 269.1652,
        "meta_mean_anomaly": 90.8477,
        "meta_ephemeris_type": 0,
        "meta_classification_type": "U",
        "meta_norad_cat_id": 46984,
        "meta_element_set_no": 999,
        "meta_rev_at_epoch": 23532,
        "meta_bstar": 0.00017982,
        "meta_mean_motion_dot": -2e-07,
        "meta_mean_motion_ddot": 0,
        "tle_line1": "1 46984U 20086A   25337.97374154 -.00000020  00000+0  17982-3 0  9999",
        "tle_line2": "2 46984  66.0390 180.5154 0007737 269.1652  90.8477 12.80930164235320"
      },
      "geometry": {
        "type": "Point",
        "coordinates": [
          -156.00460010217347,
          42.97492440064037
        ]
      }
    },
    {
      "type": "Feature",
      "properties": {
        "norad_id": 48079,
        "name": "GAOFEN-12 02",
        "group": "resource",
        "lat": 52.591536033948096,
        "lon": 163.07504174831448,
        "alt_km": 620.0641435110192,
        "timestamp": "2025-12-04T10:51:49.763839+00:00",
        "meta_object_name": "GAOFEN-12 02",
        "meta_object_id": "2021-026A",
        "meta_epoch": "2025-12-04T05:25:42.678624",
        "meta_mean_motion": 14.80659442,
        "meta_eccentricity": 0.000329,
        "meta_inclination": 97.9849,
        "meta_ra_of_asc_node": 332.2739,
        "meta_arg_of_pericenter": 118.016,
        "meta_mean_anomaly": 242.1385,
        "meta_ephemeris_type": 0,
        "meta_classification_type": "U",
        "meta_norad_cat_id": 48079,
        "meta_element_set_no": 999,
        "meta_rev_at_epoch": 25291,
        "meta_bstar": 0.00014064,
        "meta_mean_motion_dot": 1.028e-05,
        "meta_mean_motion_ddot": 0,
        "tle_line1": "1 48079U 21026A   25338.22618841  .00001028  00000+0  14064-3 0  9990",
        "tle_line2": "2 48079  97.9849 332.2739 0003290 118.0160 242.1385 14.80659442252913"
      },
      "geometry": {
        "type": "Point",
        "coordinates": [
          163.07504174831448,
          52.591536033948096
        ]
      }
    },
    {
      "type": "Feature",
      "properties": {
        "norad_id": 48268,
        "name": "PLEIADES NEO 3",
        "group": "resource",
        "lat": 16.041967741832504,
        "lon": -126.7014136698786,
        "alt_km": 624.4999796644624,
        "timestamp": "2025-12-04T10:51:49.763850+00:00",
        "meta_object_name": "PLEIADES NEO 3",
        "meta_object_id": "2021-034A",
        "meta_epoch": "2025-12-04T05:15:54.745632",
        "meta_mean_motion": 14.81672062,
        "meta_eccentricity": 0.0001244,
        "meta_inclination": 97.8948,
        "meta_ra_of_asc_node": 50.782,
        "meta_arg_of_pericenter": 92.3573,
        "meta_mean_anomaly": 267.7782,
        "meta_ephemeris_type": 0,
        "meta_classification_type": "U",
        "meta_norad_cat_id": 48268,
        "meta_element_set_no": 999,
        "meta_rev_at_epoch": 24878,
        "meta_bstar": -1.8637e-06,
        "meta_mean_motion_dot": -6.7e-07,
        "meta_mean_motion_ddot": 0,
        "tle_line1": "1 48268U 21034A   25338.21938363 -.00000067  00000+0 -18637-5 0  9998",
        "tle_line2": "2 48268  97.8948  50.7820 0001244  92.3573 267.7782 14.81672062248782"
      },
      "geometry": {
        "type": "Point",
        "coordinates": [
          -126.7014136698786,
          16.041967741832504
        ]
      }
    },
    {
      "type": "Feature",
      "properties": {
        "norad_id": 49070,
        "name": "PLEIADES NEO 4",
        "group": "resource",
        "lat": -16.234215547880826,
        "lon": 53.324259374404136,
        "alt_km": 629.2826627945515,
        "timestamp": "2025-12-04T10:51:49.763861+00:00",
        "meta_object_name": "PLEIADES NEO 4",
        "meta_object_id": "2021-073E",
        "meta_epoch": "2025-12-04T07:41:45.906144",
        "meta_mean_motion": 14.81672732,
        "meta_eccentricity": 0.0001281,
        "meta_inclination": 97.895,
        "meta_ra_of_asc_node": 50.8785,
        "meta_arg_of_pericenter": 98.0398,
        "meta_mean_anomaly": 262.096,
        "meta_ephemeris_type": 0,
        "meta_classification_type": "U",
        "meta_norad_cat_id": 49070,
        "meta_element_set_no": 999,
        "meta_rev_at_epoch": 23251,
        "meta_bstar": 3.2661e-06,
        "meta_mean_motion_dot": -2.6e-07,
        "meta_mean_motion_ddot": 0,
        "tle_line1": "1 49070U 21073E   25338.32067021 -.00000026  00000+0  32661-5 0  9996",
        "tle_line2": "2 49070  97.8950  50.8785 0001281  98.0398 262.0960 14.81672732232511"
      },
      "geometry": {
        "type": "Point",
        "coordinates": [
          53.324259374404136,
          -16.234215547880826
        ]
      }
    },
    {
      "type": "Feature",
      "properties": {
        "norad_id": 49260,
        "name": "LANDSAT 9",
        "group": "resource",
        "lat": 11.543143048650625,
        "lon": 44.993503681550344,
        "alt_km": 703.7263961710469,
        "timestamp": "2025-12-04T10:51:49.763871+00:00",
        "meta_object_name": "LANDSAT 9",
        "meta_object_id": "2021-088A",
        "meta_epoch": "2025-12-04T04:13:05.505888",
        "meta_mean_motion": 14.57116853,
        "meta_eccentricity": 0.0001061,
        "meta_inclination": 98.2104,
        "meta_ra_of_asc_node": 46.4104,
        "meta_arg_of_pericenter": 92.6691,
        "meta_mean_anomaly": 267.4629,
        "meta_ephemeris_type": 0,
        "meta_classification_type": "U",
        "meta_norad_cat_id": 49260,
        "meta_element_set_no": 999,
        "meta_rev_at_epoch": 22260,
        "meta_bstar": 0.00021181,
        "meta_mean_motion_dot": 9.09e-06,
        "meta_mean_motion_ddot": 0,
        "tle_line1": "1 49260U 21088A   25338.17575817  .00000909  00000+0  21181-3 0  9995",
        "tle_line2": "2 49260  98.2104  46.4104 0001061  92.6691 267.4629 14.57116853222606"
      },
      "geometry": {
        "type": "Point",
        "coordinates": [
          44.993503681550344,
          11.543143048650625
        ]
      }
    }
  ]
}